GPS BIIR-13 (PRN 02)    
1 28474U 04045A   24142.26263417 -.00000077  00000+0  00000+0 0  9995
2 28474  55.4301 355.2864 0162045 291.8110 270.7764  2.00560940143241
